SBIRS GEO-6 (USA 336)   
1 53355U 22092A   23205.59922951  .00000132  00000+0  00000+0 0  9994
2 53355   5.8661 311.0231 0013206 175.5822 246.3298  1.00276751  3626
EUTELSAT KONNECT VHTS   
1 53765U 22110A   23205.56111348  .00000030  00000+0  00000+0 0  9994
2 53765   0.0454  93.0489 0002892  28.0058  25.6565  1.00270861  3184
CHINASAT 1E (ZX 1E)     
1 53813U 22112A   23205.36176630 -.00000137  00000+0  00000+0 0  9992
2 53813   0.7220 277.3973 0002700 199.9877  36.0993  1.00271285  3234
SES-20                  
1 53960U 22123A   23205.58859896 -.00000087  00000+0  00000+0 0  9997
2 53960   0.0244 154.4812 0002124 296.9389 319.4123  1.00270152  2929
SES-21                  
1 53961U 22123B   23204.96113360  .00000081  00000+0  00000+0 0  9991
2 53961   0.0173  38.1377 0001013  85.4000  32.8722  1.00270219  2938
GALAXY 33 (G-33)        
1 54026U 22128A   23205.57083201  .00000092  00000+0  00000+0 0  9999
2 54026   0.0135 334.8970 0002002 142.6573 256.9712  1.00272746  3132
GALAXY 34 (G-34)        
1 54027U 22128B   23205.59767198  .00000072  00000+0  00000+0 0  9994
2 54027   0.0163  43.4442 0001172  87.3843 257.4406  1.00272778  3291
ANGOSAT 2               
1 54033U 22131A   23205.34991189  .00000148  00000+0  00000+0 0  9991
2 54033   0.0312 193.3684 0000081 176.6209  80.7739  1.00271777  2847
EUTELSAT HOTBIRD 13F    
1 54048U 22134A   23205.56085199  .00000021  00000+0  00000+0 0  9999
2 54048   0.0738 287.3534 0001594 334.2897 243.6972  1.00272518  2841
EUTELSAT HOTBIRD 13G    
1 54225U 22146A   23205.56311828  .00000100  00000+0  00000+0 0  9998
2 54225   0.0713 256.5897 0003809 301.5725 319.5916  1.00272328  2614
CHINASAT 19 (ZX 19)     
1 54230U 22148A   23205.56570660 -.00000067  00000+0  00000+0 0  9990
2 54230   0.0263 103.0354 0005228 131.4809  74.4818  1.00273251  2753
GALAXY 31 (G-31)        
1 54243U 22153A   23205.57838997  .00000026  00000+0  00000+0 0  9995
2 54243   0.0278 274.8980 0001911 337.8498 136.5023  1.00272389  2520
GALAXY 32 (G-32)        
1 54244U 22153B   23205.25580565 -.00000161  00000+0  00000+0 0  9997
2 54244   0.0115  53.8335 0001639   5.4498 243.5134  1.00272299  2527
EUTELSAT 10B            
1 54259U 22157A   23205.56259529  .00000081  00000+0  00000+0 0  9994
2 54259   0.0482  95.7553 0002546 112.7653 306.0166  1.00272463  2411
GALAXY 35 (G-35)        
1 54741U 22170A   23205.54202439 -.00000149  00000+0  00000+0 0  9997
2 54741   0.0126  40.1862 0000796 145.5444 218.2902  1.00271321  2274
GALAXY 36 (G-36)        
1 54742U 22170B   23205.54289603 -.00000172  00000+0  00000+0 0  9992
2 54742   0.0155  65.3674 0003603  42.6441 300.4286  1.00269244  2158
METEOSAT-12 (MTG-I1)    
1 54743U 22170C   23205.55998035 -.00000015  00000+0  00000+0 0  9996
2 54743   0.6437 311.9720 0002598 142.7584  45.6466  1.00275299  2360
SHIJIAN-23 (SJ-23)      
1 55131U 23002A   23205.59199594 -.00000340  00000+0  00000+0 0  9991
2 55131   0.9797  92.2545 0000233 324.5963 219.9036  1.00439870  1896
USA 340                 
1 55138U 22144E   23201.73611111  .00000092  00000+0  00000+0 0  9993
2 55138   3.1889  66.6167 0000062 250.5651 114.7089  1.00043797  2325
USA 342                 
1 55263U 23008A   23202.53947251  .00000024  00000+0  00000+0 0  9993
2 55263   0.0150  69.9848 0000634 137.3535 164.0311  1.00273514  1878
LDPE-3A                 
1 55264U 23008B   23205.51360863 -.00000261  00000+0  00000+0 0  9997
2 55264   0.3952  89.1597 0000575 170.4475 351.4587  0.99297891  1195
ELEKTRO-L 4             
1 55506U 23016A   23204.70300069 -.00000048  00000+0  00000+0 0  9990
2 55506   0.1574 307.3316 0000750   8.4811  44.1764  1.00272748  1690
CHINASAT 26 (ZX 26)     
1 55686U 23023A   23205.58551591 -.00000341  00000+0  00000+0 0  9998
2 55686   0.0615  88.0941 0003734   8.6029 181.2665  1.00270718  1619
LUCH-5X (OLYMP-K 2)     
1 55841U 23031A   23205.56233380  .00000075  00000+0  00000+0 0  9994
2 55841   0.0111  99.8097 0001874  36.0277  17.5502  1.00275094  1341
GAOFEN 13-02            
1 55912U 23036A   23205.55628307 -.00000216  00000+0  00000+0 0  9992
2 55912   2.7642 301.2919 0002458 276.5710  71.1332  1.00271063  1476
SES-18                  
1 55970U 23038A   23205.58859969 -.00000088  00000+0  00000+0 0  9998
2 55970   0.0612 259.8140 0001109 299.7807 211.2464  1.00271889  1488
SES-19                  
1 55971U 23038B   23205.56913924  .00000101  00000+0  00000+0 0  9994
2 55971   0.0384 253.9640 0001697 220.6384 257.4149  1.00270568  1452
INTELSAT 40E (IS-40E)   
1 56174U 23052A   23205.54246021 -.00000161  00000+0  00000+0 0  9998
2 56174   0.0165  86.1705 0002550  54.3494 265.7660  1.00269189  1206
VIASAT-3                
1 56370U 23060A   23205.32785917 -.00000173  00000+0  00000+0 0  9996
2 56370   0.0905 109.9214 0000579 334.0266 246.9388  1.00273462   834
ARCTURUS                
1 56371U 23060B   23205.55125459  .00000141  00000+0  00000+0 0  9995
2 56371   0.0384  67.3701 0001185 118.2753 151.8242  1.00268214   844
BEIDOU-3 G4             
1 56564U 23066A   23205.56400852 -.00000097  00000+0  00000+0 0  9990
2 56564   2.9483 289.0045 0007248 198.3869 177.6454  1.00271024   783
IRNSS-1J (NVS-01)       
1 56759U 23076A   23205.51474178 -.00000320  00000+0  00000+0 0  9993
2 56759   4.8468 272.8591 0004133 333.9454  10.0561  1.00267291   494
